#dP2023  1 19  0  0  0.00000000      96 __u+U ITR00 EXT  IAC
## 2245 345600.00000000   900.00000000 59963 0.0000000000000
+  118   C06C07C08C09C10C11C12C13C14C16C19C20C21C22C23C24C25
+        C26C27C28C29C30C32C33C34C35C36C37C38C39C40C41C42C43
+        C44C45C46E01E02E03E04E05E07E08E09E10E11E12E13E14E15
+        E18E19E21E24E25E26E27E30E31E33E34G01G02G03G04G05G06
+        G07G08G09G10G11G12G13G14G15G16G17G18G19G20G21G22G23
+        G24G25G26G27G29G30G31G32J02J03J04R01R02R03R04R05R07
+        R08R09R11R12R13R14R15R16R17R18R19R20R21R22R24R25  0
++        10 10  0  8 11  0  9 10 10  9  8 10  7  9  9  8  8
++         8  9  8  8  9  9  8  8  8  8  7  8 10 11  7  8  9
++         7 10  8  8  8  7  7  7  8  8  8  7  8  9  8  7  7
++         8  8  7  7  8  7  8  9  8  7  8  7  7  7  7  7  6
++         6  7  8  7  7  8  7  6  6  6  7  7  7  8  6  7  6
++         7  8  7  7  7  8  8  7  8 10 15 10  9  9  9  9  7
++         9  8  9  8  8  6  7  7  7  8  7  7  7  7  7  6  0
%c M  cc GPS ccc cccc cccc cccc cccc ccccc ccccc ccccc ccccc
%c cc cc ccc ccc cccc cccc cccc cccc ccccc ccccc ccccc ccccc
%f  0.0000000  0.000000000  0.00000000000  0.000000000000000
%f  0.0000000  0.000000000  0.00000000000  0.000000000000000
%i    0    0    0    0      0      0      0      0         0
%i    0    0    0    0      0      0      0      0         0
/* IAC                                ULTRA-RAPID PREDICTION
/* S/V CLOCKS ARE ALIGNED TO GNSS TIME                      
/* G:C1WC2W R:C1PC2P E:C1XC5X C:C2IC6I J:C1CC2S             
/* PCV:IGS20_2239 OL/AL:FES2004  NONE     YN ORB:CoN CLK:CoN
*  2023 01 19 12 15  0.00000000
PC06  -1364.211154  31229.587023 -28162.680012   -186.497730
PC07 -14309.418761  28227.444774  27835.042450     -6.341419
PC08 -12455.407639  40239.125619  -3449.242825    527.804530
PC09   5432.413906  34908.380577 -22223.522487    324.743243
PC10  -7180.524996  28498.642479  30393.189355     29.167033
PC11      0.000000      0.000000      0.000000   -169.641713
PC12  11762.586562  22206.893487  12182.789157    405.685278
PC13  -8604.147036  40704.727274  -7525.124527    187.043250
PC14  21777.570311   5024.571019 -16723.736543    384.762855
PC16  -2190.961855  30034.188853 -29223.683964     78.638659
PC19 -26309.795925   1953.739621   9100.572829   -896.452931
PC20 -15209.758102 -10197.975533  21064.048650    760.892830
PC21  -5943.589044  17108.046649 -21209.766316   -915.818044
PC22 -22754.948374  13557.316190  -8753.899857   -677.696979
PC23  15021.650457 -18158.355465  14932.960672   -872.127311
PC24   7509.796087  21230.555338  16480.939808   -521.268508
PC25  16419.073053    508.501611  22544.039060     57.952772
PC26  -3715.243339  27584.674556   2262.182832    -66.524579
PC27  -3852.448696 -20834.988049 -18185.497022     83.864014
PC28  12621.053805  -9905.754758 -22826.042134     60.645794
PC29 -23161.123738  -7281.129958  13760.161541     69.489688
PC30 -19083.688792 -20006.837315  -3884.668178      1.255696
PC32   5904.755611 -17191.759438  21191.363833   -645.804339
PC33  26288.582399  -2065.289272  -9142.728997   -879.472111
PC34  19724.193601  19537.521408   2682.648825     87.055312
PC35 -13464.554016   9266.494844  22615.937964    607.607557
PC36 -16276.830430  -1629.975264 -22594.435295   -684.066807
PC37   5270.843000 -27371.216553   -940.245111   -843.393009
PC38 -16439.419749  38554.303761   5273.006256     52.969418
PC39  -7347.211365  25614.015856 -32592.156814     -1.495414
PC40 -20992.188107  22090.250894  29024.879931    -12.938484
PC41  23045.608751 -13432.052910   8250.756729   -511.497169
PC42  14071.017214  10894.935345 -21455.295957   -886.678555
PC43  23309.910843   7949.963920 -13104.194775      2.837989
PC44   4321.824763  20670.328816  18216.165528    182.100306
PC45 -14831.477497  18535.988923 -14700.401213    -49.509422
PC46  -8587.425860 -19743.133979 -17739.045211    -27.504772
PE01  10048.210754  13557.226325  24316.391381   -596.423459
PE02 -10408.687964 -13220.504151 -24358.232828     15.631665
PE03 -22248.192608 -14600.493337  12951.404886   -641.456772
PE04  28995.890976   3254.908213   4968.914171    -39.526354
PE05  -2241.262795 -17624.768110  23675.691215   -103.694073
PE07 -18846.307576  10269.558939 -20380.933538    -16.348794
PE08 -29005.902823  -3294.120945  -4883.609169    -21.971772
PE09  18980.761907 -10075.244726  20359.271545   -805.525865
PE10  14844.922898  -6185.278850 -24850.159829   -506.184841
PE11   9644.521410 -17328.757713 -21981.805321    526.097801
PE12  17362.417032   4820.518950 -23474.803345   -389.905800
PE13 -10087.066012  16462.370916  22443.480686    429.827145
PE14  25275.985103  -7500.097920 -18990.844944    117.769666
PE15 -17357.083057  -5205.818030  23417.997018    693.129166
PE18 -15789.236666   7799.832849  15583.720448   -491.360895
PE19  20106.017185  15595.597895 -15112.465679  -3448.701526
PE21  -6640.665353  23559.780901  16647.362223   -507.149471
PE24  21325.133845 -20413.281665   1909.065429  -1066.510751
PE25   6909.584154 -23625.528447 -16428.493180   -597.516099
PE26   3473.897310  28421.974066   7514.128245  -1846.892835
PE27 -20896.687376  20950.912486  -1088.369144   -491.419280
PE30 -22572.077827   5273.273615 -18435.375589  -1172.756221
PE31  22699.290897  -6015.425816  18015.494718   -513.726344
PE33  14320.233396  23650.727254 -10548.777648   -453.912175
PE34 -14438.643866 -23512.385766  10711.577917    -25.626821
PG01 -14148.267855   2936.092658  21971.093382    222.540928
PG02  12909.688705  -7810.452530 -21248.759803   -626.375608
PG03 -21843.861426  10620.150087  10495.824633   -371.215685
PG04 -23299.810668   1367.768661 -12775.571002    -45.597668
PG05  17166.663857   2630.363002 -20296.685329   -112.580185
PG06   5443.018026  25943.553029    446.163618    560.833489
PG07  -8459.220995  17886.014135 -17049.778163    256.229247
PG08 -26008.451544  -6145.448348   1561.221792   -104.328063
PG09 -14730.919651  10260.035798 -19667.699562   -233.778591
PG10   6645.427276 -20498.483175  15484.210682    -21.052623
PG11  12071.587532  20362.205980 -12071.195339    -82.394368
PG12  22440.171994  -8061.679718  11313.731991   -329.945437
PG13  22566.832288  13631.805496  -4158.236744    461.944219
PG14  -9531.583307  20862.960115  13290.930667    -46.218340
PG15  26441.515093   3358.725185   1273.556154      5.949290
PG16 -14862.703774  -7030.353672 -21245.160772   -523.370700
PG17  -1135.953251  15462.210879  21993.123937    694.380865
PG18   6466.366067 -20519.138800 -15477.439744   -105.279697
PG19  11039.932355  17181.493339  16894.873021    266.164489
PG20   9048.762239  13231.199910 -21176.280222    456.091029
PG21 -16915.604983  -6230.164661  20347.737380    153.540197
PG22 -14033.225343 -17081.475393  15275.440578    409.131636
PG23  15737.221255 -20617.153068   5354.835871      2.955010
PG24  16381.758170   1159.730764  20590.619956    -36.697157
PG25  20529.144433 -16196.405610   3363.972220    412.651724
PG26  -4615.017850 -16728.088496 -20129.288294    240.518087
PG27 -21615.542422 -13079.212646  -9078.856004    123.266900
PG29  17676.058533  -6629.929201 -18758.369956   -581.306073
PG30   -165.562564  25309.898935  -7509.595306   -532.866170
PG31  -6488.356757 -25447.349783  -1736.144656   -206.778004
PG32  -3147.895168 -16267.612656  20959.574997   -369.003963
PJ02 -29391.521316  30198.655206   2997.051583     -0.620281
PJ03 -24679.683490  24299.405443  29184.362301     -0.052765
PJ04 -32630.823386  24096.303574  -6182.221379    119.435977
PR01   5050.413215 -11510.170816  22198.997511     21.517153
PR02 -14903.154841  -7395.055371  19405.605599    -23.304098
PR03 -25022.398885    740.647302   5111.238322     71.105889
PR04 -21141.216606   8061.773885 -11766.908124    172.803539
PR05  -5809.024340  11092.009973 -22217.158298    106.439649
PR07  25098.534470  -1155.725123  -4198.758132     48.297251
PR08  20911.517955  -8338.847731  12017.505262    -69.088817
PR09   4919.054735  14847.175205  20139.258742     99.407687
PR11  13456.409595 -17854.952344  12296.110231      4.861758
PR12   6495.325892 -23809.071157  -6389.071466     24.432407
PR13  -3542.372031 -16233.944238 -19372.191464    -31.104845
PR14 -12567.048372   2489.249959 -22050.436529     24.256470
PR15 -13509.910600  18456.796245 -11281.145240     91.622040
PR16  -6501.607770  23887.721568   6091.607526     10.167206
PR17 -16673.948939  -9436.933607  16834.735237    597.167848
PR18  -8807.535902   5677.811733  23277.382582     62.561894
PR19   2132.392836  17446.738893  18491.482695   -218.767271
PR20  14484.174292  20968.469155     84.576359    -86.138277
PR21  16159.010676   8198.516786 -17958.569181   -366.625183
PR22   8770.122848  -6400.481247 -23051.443969     67.298548
PR24 -15404.776737 -20315.801812    631.703601    140.706388
PR25  16467.993628  10453.245208 -16438.989007     52.038531
EOF
